*******************************************************************************
Ephemeris / WWW_USER Tue Mar 27 19:58:21 2018 Pasadena, USA      / Horizons    
*******************************************************************************
Target body name: Mars (499)                      {source: mar097}
Center body name: Solar System Barycenter (0)     {source: DE431mx}
Center-site name: BODY CENTER
*******************************************************************************
Start time      : A.D. 2000-Jan-01 00:00:00.0000 TDB
Stop  time      : A.D. 2010-Jan-01 00:00:00.0000 TDB
Step-size       : 7200 minutes
*******************************************************************************
Center geodetic : 0.00000000,0.00000000,0.0000000 {E-lon(deg),Lat(deg),Alt(km)}
Center cylindric: 0.00000000,0.00000000,0.0000000 {E-lon(deg),Dxy(km),Dz(km)}
Center radii    : (undefined)                                                  
Output units    : AU-D                                                         
Output type     : GEOMETRIC cartesian states
Output format   : 2 (position and velocity)
Reference frame : ICRF/J2000.0                                                 
Coordinate systm: Ecliptic and Mean Equinox of Reference Epoch                 
*******************************************************************************
JDTDB
   X     Y     Z
   VX    VY    VZ
*******************************************************************************
$$SOE
2454064.500000000 = A.D. 2006-Nov-25 00:00:00.0000 TDB 
  -1.092254367879224E+00 -1.109798060968419E+00  3.452007713193332E-03
   1.050089539795434E-02 -8.608539451478927E-03 -4.384671573356135E-04
2454069.500000000 = A.D. 2006-Nov-30 00:00:00.0000 TDB 
  -1.038699966638970E+00 -1.151741339560874E+00  1.256921807431039E-03
   1.091820114373544E-02 -8.165162046967862E-03 -4.394261203146571E-04
2454074.500000000 = A.D. 2006-Dec-05 00:00:00.0000 TDB 
  -9.830999670027635E-01 -1.191413858076128E+00 -9.408247254931254E-04
   1.131893970967740E-02 -7.700292652351930E-03 -4.395278178846946E-04
2454079.500000000 = A.D. 2006-Dec-10 00:00:00.0000 TDB 
  -9.255401498883746E-01 -1.228709067796816E+00 -3.136892200671011E-03
   1.170192939645963E-02 -7.214306415349712E-03 -4.387510532662237E-04
2454084.500000000 = A.D. 2006-Dec-15 00:00:00.0000 TDB 
  -8.661122578768451E-01 -1.263522458408653E+00 -5.326837235239337E-03
   1.206596761549202E-02 -6.707644287283866E-03 -4.370755284509611E-04
2454089.500000000 = A.D. 2006-Dec-20 00:00:00.0000 TDB 
  -8.049140926735772E-01 -1.295751899689205E+00 -7.506117513374547E-03
   1.240983393937806E-02 -6.180818089873670E-03 -4.344820354323895E-04
2454094.500000000 = A.D. 2006-Dec-25 00:00:00.0000 TDB 
  -7.420495959048939E-01 -1.325298007141051E+00 -9.670097468589853E-03
   1.273229349617913E-02 -5.634415198997732E-03 -4.309525262934373E-04
2454099.500000000 = A.D. 2006-Dec-30 00:00:00.0000 TDB 
  -6.776289102493743E-01 -1.352064531578111E+00 -1.181405495031357E-02
   1.303210140675536E-02 -5.069103119237192E-03 -4.264704032532448E-04
2454104.500000000 = A.D. 2007-Jan-04 00:00:00.0000 TDB 
  -6.117684177126765E-01 -1.375958772314985E+00 -1.393318893505479E-02
   1.330800775987547E-02 -4.485634432233519E-03 -4.210207818419466E-04
2454109.500000000 = A.D. 2007-Jan-09 00:00:00.0000 TDB 
  -5.445907516244802E-01 -1.396892013300892E+00 -1.602262837125365E-02
   1.355876296513268E-02 -3.884851245039564E-03 -4.145905970748538E-04
2454114.500000000 = A.D. 2007-Jan-14 00:00:00.0000 TDB 
  -4.762247788449620E-01 -1.414779981209254E+00 -1.807744222114210E-02
   1.378312421748522E-02 -3.267689215244726E-03 -4.071689123789650E-04
2454119.500000000 = A.D. 2007-Jan-19 00:00:00.0000 TDB 
  -4.068055485842037E-01 -1.429543323987717E+00 -2.009265074114182E-02
   1.397986266712528E-02 -2.635181719079832E-03 -3.987472456381665E-04
2454124.500000000 = A.D. 2007-Jan-24 00:00:00.0000 TDB 
  -3.364742041044747E-01 -1.441108107888571E+00 -2.206323806539854E-02
   1.414777095882572E-02 -1.988463328391427E-03 -3.893197060732237E-04
2454129.500000000 = A.D. 2007-Jan-29 00:00:00.0000 TDB 
  -2.653778535904604E-01 -1.449406330534736E+00 -2.398416613322448E-02
   1.428567186568049E-02 -1.328772469074883E-03 -3.788833041234729E-04
2454134.500000000 = A.D. 2007-Feb-03 00:00:00.0000 TDB 
  -1.936693965570196E-01 -1.454376446958673E+00 -2.585038996896612E-02
   1.439242771280905E-02 -6.574538887635950E-04 -3.674383194751080E-04
2454139.500000000 = A.D. 2007-Feb-08 00:00:00.0000 TDB 
  -1.215073022308547E-01 -1.455963904947951E+00 -2.765687433813123E-02
   1.446695007428415E-02  2.403981257560409E-05 -3.549884538348104E-04
2454144.500000000 = A.D. 2007-Feb-13 00:00:00.0000 TDB 
  -4.905533657931422E-02 -1.454121685481718E+00 -2.939861177820057E-02
   1.450821040109729E-02  7.141479114256335E-04 -3.415411142783895E-04
2454149.500000000 = A.D. 2007-Feb-18 00:00:00.0000 TDB 
   2.351776498363875E-02 -1.448810843362901E+00 -3.107064195728610E-02
   1.451525137139614E-02  1.411201884746942E-03 -3.271077885578419E-04
2454154.500000000 = A.D. 2007-Feb-23 00:00:00.0000 TDB 
   9.603868182774236E-02 -1.440001042498118E+00 -3.266807231944580E-02
   1.448719827390351E-02  2.113426939083974E-03 -3.117041850550148E-04
2454159.500000000 = A.D. 2007-Feb-28 00:00:00.0000 TDB 
   1.683299513516557E-01 -1.427671079751018E+00 -3.418609994988863E-02
   1.442327096550650E-02  2.818945226902733E-03 -2.953504495833897E-04
2454164.500000000 = A.D. 2007-Mar-05 00:00:00.0000 TDB 
   2.402104726195508E-01 -1.411809390702057E+00 -3.562003453662806E-02
   1.432279628084415E-02  3.525780056527472E-03 -2.780714987640657E-04
2454169.500000000 = A.D. 2007-Mar-10 00:00:00.0000 TDB 
   3.114960710504875E-01 -1.392414530101638E+00 -3.696532229998719E-02
   1.418522005137883E-02  4.231861514714642E-03 -2.598971049299366E-04
2454174.500000000 = A.D. 2007-Mar-15 00:00:00.0000 TDB 
   3.820001239499141E-01 -1.369495619448550E+00 -3.821757073802497E-02
   1.401011912166647E-02  4.935034095920703E-03 -2.408619955484744E-04
2454179.500000000 = A.D. 2007-Mar-20 00:00:00.0000 TDB 
   4.515342456272787E-01 -1.343072753789716E+00 -3.937257397435674E-02
   1.379721332944285E-02  5.633065616044266E-03 -2.210060848194313E-04
2454184.500000000 = A.D. 2007-Mar-25 00:00:00.0000 TDB 
   5.199090298046249E-01 -1.313177359605469E+00 -4.042633848409009E-02
   1.354637649820304E-02  6.323657578724004E-03 -2.003744538717695E-04
2454189.500000000 = A.D. 2007-Mar-30 00:00:00.0000 TDB 
   5.869348458816966E-01 -1.279852495688241E+00 -4.137510895832301E-02
   1.325764666599581E-02  7.004457628773456E-03 -1.790172803606877E-04
2454194.500000000 = A.D. 2007-Apr-04 00:00:00.0000 TDB 
   6.524226843440535E-01 -1.243153089071807E+00 -4.221539400876974E-02
   1.293123562229650E-02  7.673073335132312E-03 -1.569899088358567E-04
2454199.500000000 = A.D. 2007-Apr-09 00:00:00.0000 TDB 
   7.161850453848867E-01 -1.203146098356153E+00 -4.294399140436427E-02
   1.256753676341376E-02  8.327087176321329E-03 -1.343526806734676E-04
2454204.500000000 = A.D. 2007-Apr-14 00:00:00.0000 TDB 
   7.780368636003058E-01 -1.159910597380831E+00 -4.355801253423359E-02
   1.216713134777570E-02  8.964073342700506E-03 -1.111706532107068E-04
2454209.500000000 = A.D. 2007-Apr-19 00:00:00.0000 TDB 
   8.377964603639854E-01 -1.113537772963043E+00 -4.405490574916699E-02
   1.173079337098772E-02  9.581615573673546E-03 -8.751346652534058E-05
2454214.500000000 = A.D. 2007-Apr-24 00:00:00.0000 TDB 
   8.952865144203933E-01 -1.064130831329850E+00 -4.443247823430763E-02
   1.125949214101906E-02  1.017732559076532E-02 -6.345499958397738E-05
2454219.500000000 = A.D. 2007-Apr-29 00:00:00.0000 TDB 
   9.503350403241095E-01 -1.011804809138340E+00 -4.468891608899585E-02
   1.075439255079612E-02  1.074886266693740E-02 -3.907286681827128E-05
2454224.500000000 = A.D. 2007-May-04 00:00:00.0000 TDB 
   1.002776363480865E+00 -9.566862864082227E-01 -4.482280226716659E-02
   1.021685346035778E-02  1.129395355404269E-02 -1.444806903790306E-05
2454229.500000000 = A.D. 2007-May-09 00:00:00.0000 TDB 
   1.052452079934261E+00 -8.989130001626098E-01 -4.483313205027126E-02
   9.648423432365275E-03  1.181041205934819E-02  1.033551584901480E-05
2454234.500000000 = A.D. 2007-May-14 00:00:00.0000 TDB 
   1.099211988730804E+00 -8.386333592614138E-01 -4.471932578265939E-02
   9.050833789734794E-03  1.229615875691536E-02  3.519183027496994E-05
2454239.500000000 = A.D. 2007-May-19 00:00:00.0000 TDB 
   1.142914984555151E+00 -7.760058626886654E-01 -4.448123860946528E-02
   8.425989645887793E-03  1.274924014819158E-02  6.003316710805842E-05
2454244.500000000 = A.D. 2007-May-24 00:00:00.0000 TDB 
   1.183429898524180E+00 -7.111984252647056E-01 -4.411916699192860E-02
   7.775958412559237E-03  1.316784637599139E-02  8.477078838065013E-05
2454249.500000000 = A.D. 2007-May-29 00:00:00.0000 TDB 
   1.220636275597364E+00 -6.443876165451241E-01 -4.363385185564277E-02
   7.102955769621580E-03  1.355032794938770E-02  1.093157412100921E-04
2454254.500000000 = A.D. 2007-Jun-03 00:00:00.0000 TDB 
   1.254425077821173E+00 -5.757578204169662E-01 -4.302647826105106E-02
   6.409329977332486E-03  1.389521098505326E-02  1.335794923094778E-04
2454259.500000000 = A.D. 2007-Jun-08 00:00:00.0000 TDB 
   1.284699303683444E+00 -5.055003243988837E-01 -4.229867153033533E-02
   5.697544323746102E-03  1.420121000811724E-02  1.574745661748838E-04
2454264.500000000 = A.D. 2007-Jun-13 00:00:00.0000 TDB 
   1.311374515246996E+00 -4.338123490293452E-01 -4.145248985938627E-02
   4.970157693719421E-03  1.446723880726321E-02  1.809153725626724E-04
2454269.500000000 = A.D. 2007-Jun-18 00:00:00.0000 TDB 
   1.334379266247552E+00 -3.608960289249900E-01 -4.049041349119424E-02
   4.229804299238840E-03  1.469241914946570E-02  2.038188421943070E-04
